{
    "links": {
        "self": "http://www.neowsapp.com/rest/v1/neo/3602025?api_key=iIulBulltgU6a56xZRHN4H3l9WmuAYTsLGpBGhQ2"
    },
    "id": "3602025",
    "neo_reference_id": "3602025",
    "name": "(2012 FJ58)",
    "designation": "2012 FJ58",
    "nasa_jpl_url": "http://ssd.jpl.nasa.gov/sbdb.cgi?sstr=3602025",
    "absolute_magnitude_h": 24.9,
    "estimated_diameter": {
        "kilometers": {
            "estimated_diameter_min": 0.0278326768,
            "estimated_diameter_max": 0.0622357573
        },
        "meters": {
            "estimated_diameter_min": 27.8326768072,
            "estimated_diameter_max": 62.2357573367
        },
        "miles": {
            "estimated_diameter_min": 0.0172944182,
            "estimated_diameter_max": 0.0386714948
        },
        "feet": {
            "estimated_diameter_min": 91.3145593761,
            "estimated_diameter_max": 204.1855621004
        }
    },
    "is_potentially_hazardous_asteroid": false,
    "close_approach_data": [
        {
            "close_approach_date": "2012-03-21",
            "close_approach_date_full": "2012-Mar-21 22:59",
            "epoch_date_close_approach": 1332370740000,
            "relative_velocity": {
                "kilometers_per_second": "15.1695388913",
                "kilometers_per_hour": "54610.3400087948",
                "miles_per_hour": "33932.7415460203"
            },
            "miss_distance": {
                "astronomical": "0.0606648378",
                "lunar": "23.5986219042",
                "kilometers": "9075330.518775486",
                "miles": "5639148.8935582668"
            },
            "orbiting_body": "Earth"
        }
    ],
    "orbital_data": {
        "orbit_id": "4",
        "orbit_determination_date": "2017-04-06 08:50:15",
        "first_observation_date": "2012-03-29",
        "last_observation_date": "2012-03-30",
        "data_arc_in_days": 1,
        "observations_used": 14,
        "orbit_uncertainty": "9",
        "minimum_orbit_intersection": ".0590497",
        "jupiter_tisserand_invariant": "4.696",
        "epoch_osculation": "2456016.5",
        "eccentricity": ".3817147024664033",
        "semi_major_axis": "1.360032420997112",
        "inclination": "23.01669693842862",
        "ascending_node_longitude": "187.051462362436",
        "orbital_period": "579.3250648757743",
        "perihelion_distance": ".840888050071537",
        "perihelion_argument": "282.0999559217635",
        "aphelion_distance": "1.879176791922686",
        "perihelion_time": "2455951.971022063706",
        "mean_anomaly": "40.09913167152052",
        "mean_motion": ".6214127815740123",
        "equinox": "J2000",
        "orbit_class": {
            "orbit_class_type": "APO",
            "orbit_class_description": "Near-Earth asteroid orbits which cross the Earth’s orbit similar to that of 1862 Apollo",
            "orbit_class_range": "a (semi-major axis) > 1.0 AU; q (perihelion) < 1.017 AU"
        }
    },
    "is_sentry_object": false
}